COSMOS 1892             
1 18421U 87088A   20134.05275370  .00000270  00000-0  11933-4 0  9996
2 18421  82.4979 308.5788 0014952 183.0813 177.0330 15.17122169779404
SL-14 R/B               
1 18749U 88001B   20133.86438816  .00000070  00000-0  56202-5 0  9996
2 18749  82.5170  30.9983 0020083  58.0540 348.5072 14.83217260726593
COSMOS 1933             
1 18958U 88020A   20133.59409938 -.00000073  00000-0 -74204-5 0  9999
2 18958  82.5282 160.2277 0009739 275.0469  84.9645 15.03717049750865
SL-3 R/B                
1 19046U 88032B   20133.90289149 -.00000663  00000-0 -44562-4 0  9994
2 19046  97.4049 156.5447 0036805 330.1109  29.8014 15.02702382731629
SL-16 R/B               
1 19120U 88039B   20133.73320045 -.00000192  00000-0 -68680-4 0  9990
2 19120  71.0156 243.9982 0021989 356.1191   3.9760 14.19211447656856
COSMOS 1953             
1 19210U 88050A   20134.36438993 -.00000131  00000-0 -10992-4 0  9991
2 19210  82.5171  83.8893 0012073 233.4839 126.5277 15.05963628737511
SL-8 R/B                
1 19257U 88053B   20133.87503590 -.00000003  00000-0  78053-5 0  9996
2 19257  74.0502  66.4029 0019463  52.7663   2.2862 14.37466341670892
COSMOS 1975             
1 19573U 88093A   20134.31412039 -.00000133  00000-0 -11432-4 0  9990
2 19573  82.5223  38.2180 0012452 284.6046  75.3800 15.04869891719365
SL-14 R/B               
1 19574U 88093B   20133.89231094  .00000070  00000-0  56171-5 0  9991
2 19574  82.5342 233.2872 0020693 215.9232 295.1631 14.83327501685597
SL-16 R/B               
1 19650U 88102B   20133.87554084  .00000195  00000-0  12330-3 0  9997
2 19650  70.9990 304.7197 0014020   0.0236   0.0885 14.15789214625844
INTERCOSMOS 24          
1 20261U 89080A   20133.81447980  .00000197  00000-0  52498-4 0  9995
2 20261  82.6075  43.3323 1203110 170.0334 192.7148 12.56110447399111
SL-14 R/B               
1 20262U 89080C   20133.84953971  .00000060  00000-0  13652-4 0  9999
2 20262  82.5913  96.7451 1237058 358.3939   1.3325 12.48940371394548
DELTA 2 R/B(1)          
1 20303U 89085B   20133.70627338  .00001399  00000-0  46726-4 0  9994
2 20303  35.6222 235.0718 0095608 218.6977 140.6872 15.27241463663136
DELTA 1 R/B             
1 20323U 89089B   20133.98596616  .00000024  00000-0  15311-4 0  9994
2 20323  97.0854 285.4887 0071222 343.9071  15.9863 14.48344441608269
ARIANE 40 R/B           
1 20443U 90005H   20133.75066672 -.00000010  00000-0  11341-4 0  9991
2 20443  98.5782 195.6279 0011640  90.5739 269.6782 14.38087343587245
DELTA 2 R/B(1)          
1 20453U 90008B   20133.32795127  .00001224  00000-0  71068-4 0  9991
2 20453  35.6244 109.3359 0280787   3.1900 357.0534 14.85502362605829
COSMOS 2058             
1 20465U 90010A   20134.04644765  .00000164  00000-0  11595-4 0  9999
2 20465  82.4868 307.4159 0014471 325.2658  34.7618 14.98001793644131
SL-14 R/B               
1 20466U 90010B   20134.01513702  .00000062  00000-0  49004-5 0  9997
2 20466  82.5017  99.9413 0022097  93.6418 266.7324 14.81383266634543
SL-14 R/B               
1 20511U 90018B   20133.89396277  .00000062  00000-0  51105-5 0  9992
2 20511  82.5258  46.2727 0016206 231.5264 158.2140 14.80039324607858
HST                     
1 20580U 90037B   20134.13829448  .00000352  00000-0  10381-4 0  9990
2 20580  28.4687 193.2413 0002952  72.3907 128.3005 15.09384504450716
SL-16 R/B               
1 20625U 90046B   20134.29181974 -.00000210  00000-0 -84214-4 0  9993
2 20625  70.9999  82.0017 0016658 292.0377  67.8975 14.14656992547896
COSMOS 2084             
1 20663U 90055A   20134.46980207 -.00000054  00000-0  12675-4 0  9997
2 20663  62.7948 284.9887 0030274 245.6771 114.1161 14.92081789618143
SL-6 R/B(2)             
1 20666U 90055D   20134.52821517 -.00000083  00000-0  10087-4 0  9992
2 20666  62.7860 201.3058 0039403 333.0390  26.8655 14.92332373619555
SL-8 R/B                
1 20775U 90078B   20133.87328729  .00000639  00000-0  30328-4 0  9998
2 20775  82.9275 255.9603 0572758 305.0334  49.8372 14.34280120500641
SL-8 R/B                
1 21088U 91006B   20134.43849711  .00000126  00000-0  11201-3 0  9999
2 21088  82.9397 311.2537 0021586 226.8433 196.9992 13.77145107471666
OKEAN-3                 
1 21397U 91039A   20133.72366638  .00000184  00000-0  15191-4 0  9998
2 21397  82.5242 210.6518 0016244 290.7896  69.1583 14.92919214546939
COSMOS 2151             
1 21422U 91042A   20134.05082155  .00000086  00000-0  59644-5 0  9990
2 21422  82.4981 316.6527 0014020 357.8410   2.2747 14.92127690566684
SL-14 R/B               
1 21423U 91042B   20133.82770777  .00000068  00000-0  59272-5 0  9996
2 21423  82.4965  50.2017 0018143  20.7678 339.4268 14.79789781538394
ERS-1                   
1 21574U 91050A   20134.48112751  .00000029  00000-0  24174-4 0  9996
2 21574  98.5948  87.8332 0033710  32.9500 327.3779 14.37742204510073
ARIANE 40 R/B           
1 21610U 91050F   20134.12169878  .00000006  00000-0  15423-4 0  9992
2 21610  98.4666 203.7043 0003446  27.9800 344.6568 14.40902601512891
INTERCOSMOS 25          
1 21819U 91086A   20133.55074604 -.00000399  00000-0 -84800-4 0  9992
2 21819  82.5944 147.8410 1514798 348.5556   8.4348 12.05159456239965
SL-8 R/B                
1 21876U 92008B   20133.88478012  .00000048  00000-0  34188-4 0  9990
2 21876  82.9299  48.8594 0033846 315.0419 114.9907 13.75656821416983
SL-8 R/B                
1 21938U 92020B   20133.90475095  .00000119  00000-0  10737-3 0  9996
2 21938  82.9277 292.9535 0030516 111.9764  41.9922 13.75282783408789
COSMOS 2219             
1 22219U 92076A   20134.47360690  .00000197  00000-0  12900-3 0  9997
2 22219  71.0586 140.7826 0019256 213.4214 146.5694 14.13646949418198
SL-16 R/B               
1 22220U 92076B   20133.84262722  .00000014  00000-0  31159-4 0  9992
2 22220  71.0012 346.5478 0010672  98.0901 347.3872 14.16455835420632
COSMOS 2221             
1 22236U 92080A   20134.52173462  .00000131  00000-0  11528-4 0  9990
2 22236  82.5055 136.6655 0018322  78.8369 281.4907 14.87918158485124
SL-16 R/B               
1 22285U 92093B   20134.02629264 -.00000268  00000-0 -11357-3 0  9991
2 22285  71.0190 146.8402 0006225 296.0705  63.9777 14.15040825412600
COSMOS 2228             
1 22286U 92094A   20133.87382941  .00000134  00000-0  11773-4 0  9996
2 22286  82.5193  93.4655 0020577 195.2307 164.8294 14.88136531459158
SL-16 R/B               
1 22566U 93016B   20133.83863086 -.00000303  00000-0 -13210-3 0  9999
2 22566  71.0088   0.5126 0011977 311.1626  48.8463 14.14961800401299
COSMOS 2242             
1 22626U 93024A   20134.45335396  .00000151  00000-0  13689-4 0  9992
2 22626  82.5192 121.0320 0018474 192.6844 167.3911 14.87991370463958
SL-16 R/B               
1 22803U 93059B   20133.53661063 -.00000219  00000-0 -85196-4 0  9997
2 22803  70.9890 174.9581 0018601 216.9129 143.0716 14.16818722378214
ARIANE 40 R/B           
1 22830U 93061H   20133.72464070 -.00000022  00000-0  88873-5 0  9997
2 22830  98.7682 182.5787 0011941  69.9045 290.3422 14.31449375389962
COSMOS 2278             
1 23087U 94023A   20134.50895784  .00000134  00000-0  95662-4 0  9994
2 23087  71.0520 300.6939 0007775  25.5098 334.6407 14.13799078344504
SL-16 R/B               
1 23088U 94023B   20134.47192344  .00000297  00000-0  17909-3 0  9990
2 23088  71.0007 214.5439 0005352 280.6592  79.3927 14.14682759345638
SL-16 R/B               
1 23343U 94074B   20134.13560932 -.00000007  00000-0  63538-5 0  9996
2 23343  98.0023 187.4411 0005504 262.9306 116.9576 14.76822120373413
SL-16 R/B               
1 23405U 94077B   20134.07436229  .00000072  00000-0  61591-4 0  9999
2 23405  70.9797 144.8520 0002706 200.5657 159.5357 14.15218615315603
ERS-2                   
1 23560U 95021A   20134.41267599  .00000468  00000-0  23620-4 0  9991
2 23560  98.5373 283.1359 0002237 303.5256  56.5764 15.23145616336810
ARIANE 40+ R/B          
1 23561U 95021B   20134.54433045  .00000012  00000-0  19045-4 0  9998
2 23561  98.7273 173.1949 0006887   8.0711 162.6905 14.37967602313770
SL-16 R/B               
1 23705U 95058B   20134.45669168 -.00000219  00000-0 -88062-4 0  9991
2 23705  71.0222 322.3805 0010539 126.9043 233.3047 14.15137882267321
SL-16 R/B               
1 24298U 96051B   20133.82324631  .00000020  00000-0  37213-4 0  9996
2 24298  70.8440 345.6373 0012846  41.6647 318.5449 14.12498617221327
ORBVIEW 2 (SEASTAR)     
1 24883U 97037A   20133.87448835  .00000037  00000-0  29252-4 0  9991
2 24883  98.6061 247.3494 0002142 180.6777 179.4404 14.33553252203619
SL-16 R/B               
1 25400U 98043G   20133.84544510 -.00000008  00000-0  15051-4 0  9990
2 25400  98.6055  70.4336 0011062  79.8004 280.4422 14.25453028136171
SL-16 R/B               
1 25407U 98045B   20133.87210282  .00000168  00000-0  10984-3 0  9993
2 25407  71.0105 332.3864 0006864  15.0148 345.1177 14.15800012126049
ISS (ZARYA)             
1 25544U 98067A   20134.54218028  .00000832  00000-0  22964-4 0  9990
2 25544  51.6441 159.9408 0000907 287.5638 232.4948 15.49368071226640
SL-8 R/B                
1 25723U 99022C   20133.53070432  .00010881  00000-0  80865-4 0  9993
2 25723  48.4095 201.5618 0004110 183.4076 176.6850 15.73315333172321
CZ-4B R/B               
1 25732U 99025C   20133.69901628 -.00000027  00000-0  89920-5 0  9997
2 25732  98.9473 162.1814 0036508 313.6350 152.8211 14.17676002 86892
OKEAN-O                 
1 25860U 99039A   20134.07208169  .00000010  00000-0  91201-5 0  9993
2 25860  98.2162 152.4515 0001311  66.6939 293.4408 14.76659353120382
SL-16 R/B               
1 25861U 99039B   20133.87152785 -.00000002  00000-0  73419-5 0  9996
2 25861  98.2078 135.3273 0014285 272.3707 149.4809 14.78575845122363
DELTA 2 R/B             
1 25876U 99041E   20134.35264521 -.00000155  00000-0  12860-4 0  9992
2 25876  51.7675  88.9000 0530440 241.7530 112.8888 14.04427082 63719
